satname,norad_id,inclination_deg,eccentricity,mean_motion_rev_per_day,perigee_km,apogee_km,l1,l2
STARLINK-1464,45751,53.055,0.0001217,15.06408461,546.3428145496373,548.0284380768817,1 45751U 20038X   25321.50588520  .00006612  00000+0  46226-3 0  9998,2 45751  53.0550   0.2317 0001217  99.8861 260.2265 15.06408461299577
STARLINK-1477,45754,53.0539,0.0002934,15.07607872,541.4812642280622,545.5428879058991,1 45754U 20038AA  25321.37868957  .00028058  00000+0  18341-2 0  9995,2 45754  53.0539   0.7021 0002934  33.2730 326.8444 15.07607872299552
STARLINK-1478,45755,53.0552,0.00016,15.06407377,546.0808964362523,548.2970007397998,1 45755U 20038AB  25321.80443611  .00005607  00000+0  39491-3 0  9995,2 45755  53.0552 358.8883 0001600  90.0159 270.1013 15.06407377299602
STARLINK-1484,45756,53.0165,0.0004256,15.64832346,370.84738218550046,376.594563692066,1 45756U 20038AC  25321.85211652  .00111160  00000+0  11085-2 0  9999,2 45756  53.0165 257.3090 0004256  86.7394 273.4107 15.64832346301032
STARLINK-1493,45759,53.0546,0.0001864,15.06391738,545.9459902028539,548.5277695852783,1 45759U 20038AF  25321.52799844 -.00000590  00000+0 -20694-4 0  9994,2 45759  53.0546   0.1285 0001864  93.9309 266.1893 15.06391738299562
STARLINK-1494,45760,53.0549,0.0004519,15.53010609,404.87508684447766,411.00834478783236,1 45760U 20038AG  25321.34246644  .00050074  00000+0  79100-3 0  9996,2 45760  53.0549 340.6101 0004519  57.7227 302.4219 15.53010609299836
STARLINK-1502,45764,53.0568,0.0001805,15.06414003,545.9186234243125,548.4186587607464,1 45764U 20038AL  25321.82656536  .00005976  00000+0  41959-3 0  9990,2 45764  53.0568 358.7904 0001805  88.8684 271.2512 15.06414003299629
STARLINK-1470,45772,53.0491,0.000455,15.18891259,506.0565249149786,512.3239927205032,1 45772U 20038AU  25321.74402490  .00047405  00000+0  22447-2 0  9991,2 45772  53.0491 330.1862 0004550 333.5556  26.5205 15.18891259300019
STARLINK-1482,45773,53.0541,0.0001508,15.06409096,546.1393417900526,548.2280185071841,1 45773U 20038AV  25321.79154789  .00003793  00000+0  27331-3 0  9992,2 45773  53.0541 338.9481 0001508  82.5967 277.5194 15.06409096299895
STARLINK-1496,45780,53.0561,0.0001864,15.06402591,545.9127334168397,548.4945003988241,1 45780U 20038BC  25321.75836284  .00000922  00000+0  80785-4 0  9997,2 45780  53.0561 339.0978 0001864 103.7533 256.3664 15.06402591299876
STARLINK-1497,45781,53.0379,0.0006144,15.59397015,385.24311684973054,393.55906765749114,1 45781U 20038BD  25321.91668980  .00220730  00000+0  26740-2 0  9992,2 45781  53.0379 277.5106 0006144  25.8316  77.2540 15.59397015  5917
STARLINK-1510,45784,53.03,0.000501,15.77736755,333.4904757389713,340.21889740891856,1 45784U 20038BG  25321.91668980  .00231126  00000+0  13170-2 0  9999,2 45784  53.0300 251.5374 0005010 114.5823 208.3127 15.77736755  5975
STARLINK-1513,45786,53.0557,0.0001414,15.06406546,546.2122540144665,548.1707369129836,1 45786U 20038BJ  25321.78786257  .00002443  00000+0  18278-3 0  9997,2 45786  53.0557 338.9663 0001414  84.6015 275.5135 15.06406546299891
STARLINK-1522,46027,53.0543,0.0001491,15.06401882,546.1732212753686,548.2383584953132,1 46027U 20055A   25321.83485034  .00000145  00000+0  28611-4 0  9990,2 46027  53.0543 268.7481 0001491  86.9623 273.1536 15.06401882292023
STARLINK-1523,46028,53.0547,0.0001275,15.0641007,546.2977170044369,548.0636730166643,1 46028U 20055B   25321.84958375  .00017333  00000+0  11793-2 0  9993,2 46028  53.0547 268.6892 0001275  99.8026 260.3107 15.06410070292046
STARLINK-1526,46029,53.0547,0.0001635,15.06400798,546.0768180949472,548.341406273632,1 46029U 20055C   25321.57683024  .00011886  00000+0  81545-3 0  9990,2 46029  53.0547 269.9109 0001635  93.2057 266.9119 15.06400798291998
STARLINK-1555,46032,53.0549,0.0001554,15.0641987,546.0744702171214,548.2268496218239,1 46032U 20055F   25321.82747823  .00003618  00000+0  26154-3 0  9999,2 46032  53.0549 268.7847 0001554  90.0628 270.0539 15.06419870292038
STARLINK-1556,46033,53.0548,0.0001647,15.06391385,546.0973525421159,548.3785710545326,1 46033U 20055G   25321.14557953  .00012013  00000+0  82417-3 0  9991,2 46033  53.0548 271.8477 0001647  86.8715 273.2462 15.06391385291900
STARLINK-1557,46034,53.0547,0.0001616,15.06397829,546.0990743463699,548.3373491508064,1 46034U 20055H   25321.81273485  .00003803  00000+0  27406-3 0  9995,2 46034  53.0547 268.8510 0001616 103.3231 256.7938 15.06397829292003
STARLINK-1558,46035,53.0547,0.0001309,15.06406631,546.2847094869103,548.097760418821,1 46035U 20055J   25321.82010529  .00012977  00000+0  88830-3 0  9995,2 46035  53.0547 268.8208 0001309  93.3151 266.7988 15.06406631292037
STARLINK-1560,46036,53.0546,0.0001285,15.06405131,546.3059269379746,548.0857374758516,1 46036U 20055K   25321.14188918  .00000142  00000+0  28446-4 0  9998,2 46036  53.0546 271.8675 0001285  94.5623 265.5513 15.06405131291932
STARLINK-1567,46038,53.0548,0.0001435,15.06419565,546.1578157668155,548.1453735934892,1 46038U 20055M   25321.55103448  .00010429  00000+0  71762-3 0  9997,2 46038  53.0548 270.0248 0001435  95.6926 264.4226 15.06419565291988
STARLINK-1569,46039,53.0544,0.0001356,15.06403406,546.2620432095564,548.1401949074443,1 46039U 20055N   25321.82378231  .00010213  00000+0  70344-3 0  9998,2 46039  53.0544 268.8036 0001356 107.5457 252.5680 15.06403406292024
STARLINK-1582,46043,53.0552,0.0001777,15.06393614,546.000492260936,548.4617680944011,1 46043U 20055S   25321.16769622  .00001596  00000+0  12606-3 0  9999,2 46043  53.0552 271.7493 0001777  86.9935 273.1257 15.06393614291922
STARLINK-1591,46045,53.0565,0.0001707,15.06416203,545.9797500000786,548.3440470440328,1 46045U 20055U   25321.59159186  .00010498  00000+0  72228-3 0  9993,2 46045  53.0565 269.8460 0001707  80.7643 279.3539 15.06416203291977
STARLINK-1524,46047,53.0542,0.0001336,15.06424282,546.2119214803333,548.0623547300356,1 46047U 20055W   25321.80996590  .00003519  00000+0  25487-3 0  9998,2 46047  53.0542 258.8659 0001336  97.3481 262.7660 15.06424282292163
STARLINK-1527,46048,53.0539,0.0001458,15.06397678,546.2089576856415,548.2283914003392,1 46048U 20055X   25321.80628250  .00007434  00000+0  51747-3 0  9992,2 46048  53.0539 258.8802 0001458  90.6880 269.4276 15.06397678292147
STARLINK-1540,46051,53.0546,0.0001608,15.06425706,546.0191904913263,548.2463572506022,1 46051U 20055AA  25321.83946162  .00013395  00000+0  91578-3 0  9993,2 46051  53.0546 258.7308 0001608 101.0525 259.0645 15.06425706292182
